#cP2024  2 22 12  0  0.00000000     577 d+D   IGS20 EXT AIUB
## 2302 388800.00000000   300.00000000 60362 0.5000000000000
+   78   G01G02G03G04G05G06G07G08G09G10G11G12G13G14G15G16G17
+        G18G19G20G21G22G23G24G25G26G27G28G29G30G31G32R01R02
+        R03R04R05R07R08R09R11R12R13R14R15R16R17R18R19R20R21
+        R22R24E02E03E04E05E07E08E09E10E11E12E13E14E15E18E19
+        E21E24E25E26E27E30E31E33E34E36  0  0  0  0  0  0  0
++         7  7  6  5  7  6  7  7  6  6  7  7  8  5  7  7  7
++         7  7  7  7  7  6  7  6  6  6  6  7  6  7  6  9  7
++         8  8  8  8  8  6  6  6  7  7  6  7  8  7  8  9  7
++         7  7  6  6  7  7  7  7  7  9  7  7  6  7  6  7  7
++         5  6  6  7  6  6  6  7  6  7  0  0  0  0  0  0  0
%c M  cc GPS ccc cccc cccc cccc cccc ccccc ccccc ccccc ccccc
%c cc cc ccc ccc cccc cccc cccc cccc ccccc ccccc ccccc ccccc
%f  1.2500000  1.025000000  0.00000000000  0.000000000000000
%f  0.0000000  0.000000000  0.00000000000  0.000000000000000
%i    0    0    0    0      0      0      0      0         0
%i    0    0    0    0      0      0      0      0         0
/* Center for Orbit Determination in Europe (CODE)          
/* Ultra-rapid GRE orbits starting year-day 24053 12 hour   
/* Observed/predicted: 25/23 hours (data used up to 054M)   
/* PCV:IGS20      OL/AL:FES2014b NONE     YN ORB:CoN CLK:BRD
*  2024  2 22 14 45  0.00000000
PG01 -10534.084386 -12565.190322 -21314.973952    170.624840
PG02  -1461.405593 -14873.338907 -21450.323571   -481.438303
PG03 -10482.270212 -22641.704032  -9426.073422    209.356360
PG04   -466.229227 -22952.166877  13254.206042    298.014074
PG05     34.425911  18868.840486  18481.099590   -162.770246
PG06 -25798.743508   5929.830370   2874.135568    396.894014
PG07 -21266.415465  -7288.928274  14996.353115    -68.038582
PG08   4659.508296 -25406.083606  -5206.450498     -0.130350
PG09 -10786.800729 -12869.035440  20485.174958    100.787412
PG10  19325.995126   5105.571794 -17445.161155      1.150993
PG11 -19434.364944  11846.445336  13676.024507   -584.372184
PG12   8242.512649  23374.458200  -9924.837315   -480.490665
PG13 -13565.255215  22614.802300   1669.423373    627.873979
PG14 -20347.482797  -8589.416896 -14865.968569    332.468050
PG15  -1360.534355  25948.131541  -5426.807293    130.368142
PG16   7261.924303 -14642.187586  20505.845871   -356.990197
PG17 -16021.849245   1061.083496 -20764.202843    716.155595
PG18  21923.529958   6189.481007  13823.598155   -561.136184
PG19 -17897.872967   9851.048033 -16958.403224    444.245474
PG20 -11275.805541  10622.767025  21629.519622    386.538769
PG21   3858.395439 -15705.754887 -20379.906818    133.993831
PG22 -17411.969879  -1347.581440 -19497.778530     27.051202
PG23  20399.334572  15244.084214  -7859.245430    161.694200
PG24   -291.719543  16362.900896 -21280.079178   -435.844118
PG25  16915.460450  20663.380814   -787.246780    489.350736
PG26  15600.227537  -5885.910377  20586.984562    187.455991
PG27  12770.611791 -22045.750745   6380.452000     -6.237705
PG28  26052.084772  -5150.860860   -207.524003   -139.780372
PG29   8204.312745  15055.803288  20204.843816   -606.439500
PG30 -26177.280137    310.487009   5399.295563   -429.200341
PG31  23122.132630  -9829.951950   9002.522888   -227.846610
PG32  16555.100331  -4926.644046 -19916.138087   -612.932164
PR01  11019.835357   3918.745953 -22661.302053     77.834762
PR02   8585.062764 -14589.958505 -19004.727730    -22.492120
PR03   1325.672514 -25056.708237  -4365.418372     95.020977
PR04  -6116.334084 -21515.602381  12282.616766    224.603436
PR05 -10463.472262  -6459.042603  22361.019970    127.306382
PR07  -1005.047355  25262.491674   3630.137459     76.382817
PR08   6369.507413  21394.974392 -12310.524791    -74.472709
PR09 -15177.085340   3626.427734 -20189.873155    171.423420
PR11  16220.522638  15177.853693 -12518.137968     33.510623
PR12  23078.755323   8649.293044   6624.618919     37.015651
PR13  16843.168131  -1630.066788  19068.171191    -44.606619
PR14  -1413.389021 -12812.268644  22019.076899     26.080511
PR15 -17135.652367 -15229.038408  11201.705202     81.976693
PR16 -23129.688580  -8743.640946  -6329.349990     23.468403
PR17  10397.843366 -15582.582831 -17319.781995     63.332869
PR18  -5464.706445  -8939.544265 -23239.855883    128.669863
PR19 -17703.257437    451.671148 -18358.664770   -266.776892
PR20 -22230.228703  12548.102314    595.054089   -108.743835
PR21 -10298.814747  15390.549969  17534.160632    -79.011742
PR22   6399.397349   8897.604703  23060.672789    109.347480
PR24  21516.699928 -13660.829920  -1125.171580    -44.952552
PE02   -349.947057 -22226.392985  19523.906489    105.511319
PE03   8558.142581 -28153.524484   3262.090788    -95.538181
PE04   6204.141109  21431.544044 -19442.810973   -333.303276
PE05  18097.045305 -18336.465300 -14569.862745   4722.481651
PE07 -16998.513265  -2731.023181  24085.103097   -105.135705
PE08  -5599.350694 -21910.161686  19106.708646   -227.918664
PE09  16828.056251   2783.005202 -24188.523261   -345.329524
PE10  22093.507206   8229.510955  17894.851002   -603.914569
PE11  28100.405804   1724.364764   9103.143998   3230.441479
PE12  13428.344393  12982.071105  22958.365274   -917.422491
PE13 -27877.717474  -2096.058181  -9742.532494    -20.269253
PE14  12713.863393  10030.352701  18537.507146 999999.999999
PE15 -12890.376437 -13101.820539 -23196.041483    -87.257724
PE18 -10992.501978 -20157.934316 -21723.799395 999999.999999
PE19 -10165.984161  27778.406644  -1132.567919   -565.606157
PE21 -15222.377344   7703.809314 -24196.900634   -580.335807
PE24  22604.616039  12384.889339  14553.792212   -612.493670
PE25  15490.772876  -7301.555481  24140.066426      1.227836
PE26 -25985.242562  10333.223892   9723.883295    376.251264
PE27 -22607.104061 -11942.407627 -14910.636278   -281.175677
PE30 -16370.999852 -24433.380585   3246.162210    -23.500764
PE31  16582.106044  24332.421210  -3065.383136    -16.593589
PE33 -10046.561744  16218.161054  22639.605586      7.982101
PE34   9405.564749 -16287.992546 -22855.492310    -96.067524
PE36  26321.442693  -9939.276663  -9163.375881   -189.517579
EOF
